NORAD_CAT_ID,OBJECT_NAME,OBJECT_TYPE,EPOCH,MEAN_MOTION,ECCENTRICITY,INCLINATION,RA_OF_ASC_NODE,ARG_OF_PERICENTER,MEAN_ANOMALY,BSTAR,MEAN_MOTION_DOT,MEAN_MOTION_DDOT,TLE_LINE0,TLE_LINE1,TLE_LINE2,SEMIMAJOR_AXIS,PERIOD,APOGEE,PERIGEE,DECAYED
53981.0,STARLINK-5149,PAYLOAD,2023-06-11 09:26:26,15.08837566,0.0001348,53.2172,23.3798,92.1653,267.9494,0.00012798,1.749e-05,0.0,0 STARLINK-5149,1 53981U 22125T   23162.39335765  .00001749  00000-0  12798-3 0  9994,2 53981  53.2172  23.3798 0001348  92.1653 267.9494 15.08837566 38294,6917.888,95.438,540.685,538.82,0.0
53981.0,STARLINK-5149,PAYLOAD,2023-06-11 15:47:59,15.08833599,0.0001333,53.2172,22.1904,92.3522,267.7623,8.1423e-05,1.008e-05,0.0,0 STARLINK-5149,1 53981U 22125T   23162.65832236  .00001008  00000-0  81423-4 0  9998,2 53981  53.2172  22.1904 0001333  92.3522 267.7623 15.08833599 38408,6917.9,95.438,540.687,538.843,0.0
53981.0,STARLINK-5149,PAYLOAD,2023-06-11 17:23:22,15.08835009,0.000134,53.2172,21.8929,92.1643,267.9503,9.1456e-05,1.168e-05,0.0,0 STARLINK-5149,1 53981U 22125T   23162.72456152  .00001168  00000-0  91456-4 0  9999,2 53981  53.2172  21.8929 0001340  92.1643 267.9503 15.08835009 38341,6917.896,95.438,540.688,538.834,0.0
53981.0,STARLINK-5149,PAYLOAD,2023-06-12 07:41:50,15.08841114,0.0001259,53.2175,19.2167,92.0377,268.0759,8.1289e-05,1.006e-05,0.0,0 STARLINK-5149,1 53981U 22125T   23163.32071771  .00001006  00000-0  81289-4 0  9990,2 53981  53.2175  19.2167 0001259  92.0377 268.0759 15.08841114 38508,6917.877,95.437,540.613,538.871,0.0
53981.0,STARLINK-5149,PAYLOAD,2023-06-12 20:24:54,15.08843877,0.0001252,53.2175,16.8378,92.7023,267.4113,8.4158e-05,1.052e-05,0.0,0 STARLINK-5149,1 53981U 22125T   23163.85063568  .00001052  00000-0  84158-4 0  9992,2 53981  53.2175  16.8378 0001252  92.7023 267.4113 15.08843877 38519,6917.869,95.437,540.6,538.867,0.0
53981.0,STARLINK-5149,PAYLOAD,2023-06-12 23:35:40,15.08847295,0.0001221,53.2174,16.2426,95.5114,264.6017,9.9141e-05,1.291e-05,0.0,0 STARLINK-5149,1 53981U 22125T   23163.98311259  .00001291  00000-0  99141-4 0  9992,2 53981  53.2174  16.2426 0001221  95.5114 264.6017 15.08847295 38536,6917.858,95.437,540.568,538.878,0.0
53981.0,STARLINK-5149,PAYLOAD,2023-06-13 17:04:56,15.08818888,0.000102,53.2181,12.9693,97.0389,263.0719,0.00021048,3.062e-05,0.0,0 STARLINK-5149,1 53981U 22125T   23164.71176721  .00003062  00000-0  21048-3 0  9995,2 53981  53.2181  12.9693 0001020  97.0389 263.0719 15.08818888 38719,6917.945,95.439,540.516,539.104,0.0
53981.0,STARLINK-5149,PAYLOAD,2023-06-13 20:15:42,15.08819924,9.9e-05,53.2181,12.3739,100.3522,259.7582,0.00024736,3.649e-05,0.0,0 STARLINK-5149,1 53981U 22125T   23164.84424703  .00003649  00000-0  24736-3 0  9993,2 53981  53.2181  12.3739 0000990 100.3522 259.7582 15.08819924 38662,6917.942,95.439,540.492,539.122,0.0
53981.0,STARLINK-5149,PAYLOAD,2023-06-13 23:26:28,15.0883924,0.0001232,53.2181,11.7789,99.8396,260.2735,1.0143e-05,-1.26e-06,0.0,0 STARLINK-5149,1 53981U 22125T   23164.97671980 -.00000126  00000-0  10143-4 0  9994,2 53981  53.2181  11.7789 0001232  99.8396 260.2735 15.08839240 38751,6917.883,95.438,540.6,538.895,0.0
53981.0,STARLINK-5149,PAYLOAD,2023-06-14 13:44:56,15.08840039,0.000122,53.2181,9.1042,87.0048,273.1084,6.1142e-05,6.85e-06,0.0,0 STARLINK-5149,1 53981U 22125T   23165.57287831  .00000685  00000-0  61142-4 0  9993,2 53981  53.2181   9.1042 0001220  87.0048 273.1084 15.08840039 38774,6917.88,95.438,540.589,538.901,0.0
53981.0,STARLINK-5149,PAYLOAD,2023-06-14 20:06:29,15.08840388,0.0001218,53.2179,7.9151,86.8752,273.2379,5.5886e-05,6.02e-06,0.0,0 STARLINK-5149,1 53981U 22125T   23165.83783842  .00000602  00000-0  55886-4 0  9992,2 53981  53.2179   7.9151 0001218  86.8752 273.2379 15.08840388 38814,6917.879,95.438,540.587,538.902,0.0
53981.0,STARLINK-5149,PAYLOAD,2023-06-15 13:35:44,15.08838415,0.000137,53.2183,4.6437,86.1015,274.0134,1.1874e-05,-9.9e-07,0.0,0 STARLINK-5149,1 53981U 22125T   23166.56648279 -.00000099  00000-0  11874-4 0  9997,2 53981  53.2183   4.6437 0001370  86.1015 274.0134 15.08838415 38922,6917.885,95.438,540.698,538.802,0.0
53981.0,STARLINK-5149,PAYLOAD,2023-06-15 19:57:16,15.08842358,0.0001118,53.2177,3.4555,83.1593,276.9526,6.5107e-05,7.49e-06,0.0,0 STARLINK-5149,1 53981U 22125T   23166.83143856  .00000749  00000-0  65107-4 0  9997,2 53981  53.2177   3.4555 0001118  83.1593 276.9526 15.08842358 39031,6917.873,95.437,540.512,538.965,0.0
53981.0,STARLINK-5149,PAYLOAD,2023-06-16 13:26:30,15.08868148,0.0001155,53.2183,0.1861,92.9504,267.162,-0.0002552,-4.35e-05,0.0,0 STARLINK-5149,1 53981U 22125T   23167.56007755 -.00004350  00000-0 -25520-3 0  9993,2 53981  53.2183   0.1861 0001155  92.9504 267.1620 15.08868148 39079,6917.794,95.436,540.458,538.86,0.0
53981.0,STARLINK-5149,PAYLOAD,2023-06-16 19:48:02,15.0886197,7.35e-05,53.2181,358.9986,79.1423,280.9652,-7.5011e-05,-1.482e-05,0.0,0 STARLINK-5149,1 53981U 22125T   23167.82502879 -.00001482  00000-0 -75011-4 0  9993,2 53981  53.2181 358.9986 0000735  79.1423 280.9652 15.08861970 39118,6917.813,95.436,540.187,539.17,0.0
53981.0,STARLINK-5149,PAYLOAD,2023-06-17 05:20:22,15.08835712,0.0002115,53.2178,357.2106,73.3881,286.7343,5.0738e-05,5.19e-06,0.0,0 STARLINK-5149,1 53981U 22125T   23168.22248503  .00000519  00000-0  50738-4 0  9996,2 53981  53.2178 357.2106 0002115  73.3881 286.7343 15.08835712 39248,6917.893,95.438,541.222,538.295,0.0
53981.0,STARLINK-5149,PAYLOAD,2023-06-17 14:52:42,15.08816478,2.46e-05,53.2185,355.4334,125.0262,235.0753,-0.00010953,-2.029e-05,0.0,0 STARLINK-5149,1 53981U 22125T   23168.61993878 -.00002029  00000-0 -10953-3 0  9995,2 53981  53.2185 355.4334 0000246 125.0262 235.0753 15.08816478 39307,6917.952,95.439,539.987,539.647,0.0
53981.0,STARLINK-5149,PAYLOAD,2023-06-17 19:38:52,15.08817155,8.41e-05,53.2183,354.537,74.0267,286.0818,-0.00012096,-2.211e-05,0.0,0 STARLINK-5149,1 53981U 22125T   23168.81866319 -.00002211  00000-0 -12096-3 0  9999,2 53981  53.2183 354.5370 0000841  74.0267 286.0818 15.08817155 39260,6917.95,95.439,540.397,539.233,0.0
53981.0,STARLINK-5149,PAYLOAD,2023-06-18 05:11:10,15.08830265,0.000103,53.2184,352.7513,74.9081,285.2025,-4.0601e-05,-9.34e-06,0.0,0 STARLINK-5149,1 53981U 22125T   23169.21609569 -.00000934  00000-0 -40601-4 0  9990,2 53981  53.2184 352.7513 0001030  74.9081 285.2025 15.08830265 39396,6917.91,95.438,540.488,539.063,0.0
53981.0,STARLINK-5149,PAYLOAD,2023-06-18 11:32:42,15.08838843,9.61e-05,53.2182,351.5614,75.1187,284.9912,-5.6367e-05,-1.185e-05,0.0,0 STARLINK-5149,1 53981U 22125T   23169.48105323 -.00001185  00000-0 -56367-4 0  9993,2 53981  53.2182 351.5614 0000961  75.1187 284.9912 15.08838843 39363,6917.884,95.438,540.414,539.084,0.0
53981.0,STARLINK-5149,PAYLOAD,2023-06-19 06:37:20,15.08846004,9.82e-05,53.217,347.9934,71.4853,288.6246,0.0004043,6.154e-05,0.0,0 STARLINK-5149,1 53981U 22125T   23170.27593014  .00006154  00000-0  40430-3 0  9992,2 53981  53.2170 347.9934 0000982  71.4853 288.6246 15.08846004 39556,6917.862,95.437,540.406,539.048,0.0
53981.0,STARLINK-5149,PAYLOAD,2023-06-19 11:23:29,15.08850016,9.97e-05,53.2167,347.1013,67.8245,292.2852,0.00062292,9.642e-05,0.0,0 STARLINK-5149,1 53981U 22125T   23170.47465119  .00009642  00000-0  62292-3 0  9993,2 53981  53.2167 347.1013 0000997  67.8245 292.2852 15.08850016 39510,6917.85,95.437,540.404,539.025,0.0
53981.0,STARLINK-5149,PAYLOAD,2023-06-19 14:34:15,15.08855896,9.72e-05,53.2167,346.5065,67.5141,292.5953,0.00064212,9.951e-05,0.0,0 STARLINK-5149,1 53981U 22125T   23170.60712912  .00009951  00000-0  64212-3 0  9991,2 53981  53.2167 346.5065 0000972  67.5141 292.5953 15.08855896 39533,6917.832,95.437,540.369,539.024,0.0
53981.0,STARLINK-5149,PAYLOAD,2023-06-20 11:14:16,15.08852369,0.0001032,53.2166,342.641,72.94,287.1705,0.00021015,3.059e-05,0.0,0 STARLINK-5149,1 53981U 22125T   23171.46824373  .00003059  00000-0  21015-3 0  9998,2 53981  53.2166 342.6410 0001032  72.9400 287.1705 15.08852369 39660,6917.843,95.437,540.422,538.994,0.0
53981.0,STARLINK-5149,PAYLOAD,2023-06-20 17:35:48,15.08844683,9.04e-05,53.2168,341.4517,78.2821,281.8272,2.5548e-05,1.19e-06,0.0,0 STARLINK-5149,1 53981U 22125T   23171.73320525  .00000119  00000-0  25548-4 0  9998,2 53981  53.2168 341.4517 0000904  78.2821 281.8272 15.08844683 39772,6917.866,95.437,540.356,539.106,0.0
53981.0,STARLINK-5149,PAYLOAD,2023-06-20 20:46:35,15.08850121,9.43e-05,53.2168,340.8563,77.3725,282.7372,0.00014921,2.088e-05,0.0,0 STARLINK-5149,1 53981U 22125T   23171.86568370  .00002088  00000-0  14921-3 0  9993,2 53981  53.2168 340.8563 0000943  77.3725 282.7372 15.08850121 39722,6917.849,95.437,540.367,539.062,0.0
53981.0,STARLINK-5149,PAYLOAD,2023-06-21 11:05:03,15.08841914,9.13e-05,53.2171,338.1808,73.6915,286.4178,2.4171e-05,9.7e-07,0.0,0 STARLINK-5149,1 53981U 22125T   23172.46184681  .00000097  00000-0  24171-4 0  9996,2 53981  53.2171 338.1808 0000913  73.6915 286.4178 15.08841914 39810,6917.875,95.437,540.371,539.108,0.0
53981.0,STARLINK-5149,PAYLOAD,2023-06-21 17:26:35,15.08846856,9.31e-05,53.2174,336.9913,73.664,286.4455,7.8945e-05,9.69e-06,0.0,0 STARLINK-5149,1 53981U 22125T   23172.72680525  .00000969  00000-0  78945-4 0  9999,2 53981  53.2174 336.9913 0000931  73.6640 286.4455 15.08846856 39853,6917.859,95.437,540.368,539.08,0.0
53981.0,STARLINK-5149,PAYLOAD,2023-06-22 04:34:17,15.08845127,9.62e-05,53.2171,334.9087,86.7083,273.4019,4.0044e-05,3.5e-06,0.0,0 STARLINK-5149,1 53981U 22125T   23173.19048520  .00000350  00000-0  40044-4 0  9997,2 53981  53.2171 334.9087 0000962  86.7083 273.4019 15.08845127 39997,6917.865,95.437,540.395,539.064,0.0
53981.0,STARLINK-5149,PAYLOAD,2023-06-23 17:08:10,15.08845499,9.5e-05,53.2174,328.0704,89.8974,270.2127,0.00015356,2.157e-05,0.0,0 STARLINK-5149,1 53981U 22125T   23174.71400655  .00002157  00000-0  15356-3 0  9991,2 53981  53.2174 328.0704 0000950  89.8974 270.2127 15.08845499 40225,6917.864,95.437,540.386,539.071,0.0
